ONEWEB-0211             
1 48767U 21045A   26185.14337757 -.00000007  00000+0 -51319-4 0  9994
2 48767  87.9000 255.7005 0002447 113.6928 246.4460 13.16197414246677
ONEWEB-0223             
1 48768U 21045B   26185.45827996 -.00000119  00000+0 -34967-3 0  9991
2 48768  87.9002 255.7509 0002093 110.9846 249.1509 13.15547670246671
ONEWEB-0230             
1 48769U 21045C   26185.42976194  .00000176  00000+0  43371-3 0  9994
2 48769  87.8994 255.7685 0001909  95.1781 264.9567 13.15547465246933
ONEWEB-0237             
1 48770U 21045D   26185.49472314  .00000223  00000+0  55790-3 0  9999
2 48770  87.8993 255.7573 0002364 101.1865 258.9532 13.15548220246662
ONEWEB-0235             
1 48771U 21045E   26185.46936949  .00000003  00000+0 -26752-4 0  9990
2 48771  87.9001 255.7497 0002002 111.4992 248.6352 13.15549545246659
ONEWEB-0242             
1 48772U 21045F   26185.61515057 -.00000064  00000+0 -20407-3 0  9999
2 48772  87.9006 255.7179 0001877 102.8517 257.2824 13.15548188246717
ONEWEB-0241             
1 48773U 21045G   26185.45034769 -.00000047  00000+0 -15886-3 0  9994
2 48773  87.8994 255.7669 0002249 109.4120 250.7253 13.15550782246609
ONEWEB-0243             
1 48774U 21045H   26185.48205569  .00000088  00000+0  19843-3 0  9996
2 48774  87.8992 255.7731 0001577 110.1490 249.9810 13.15550225246634
ONEWEB-0222             
1 48775U 21045J   26185.61750996 -.00000063  00000+0 -20079-3 0  9999
2 48775  87.9003 255.7151 0002139 105.3491 254.7876 13.15549389246698
ONEWEB-0244             
1 48776U 21045K   26185.49155720  .00000209  00000+0  52125-3 0  9997
2 48776  87.9007 255.7358 0001948 103.0893 257.0455 13.15547650247240
ONEWEB-0247             
1 48777U 21045L   26185.48839117  .00000090  00000+0  20395-3 0  9998
2 48777  87.8993 255.7662 0001690 123.3105 236.8187 13.15548370246681
ONEWEB-0245             
1 48778U 21045M   26185.48363021  .00000193  00000+0  47782-3 0  9998
2 48778  87.9001 255.7479 0002136 103.7203 256.4165 13.15549314246656
ONEWEB-0229             
1 48779U 21045N   26185.47887628  .00000105  00000+0  24484-3 0  9999
2 48779  87.8999 255.7466 0001912 101.3148 258.8197 13.15547568246684
ONEWEB-0228             
1 48780U 21045P   26185.43623543  .00000047  00000+0  91387-4 0  9993
2 48780  87.9008 255.7487 0001987 101.2354 258.9000 13.15549436246591
ONEWEB-0232             
1 48781U 21045Q   26185.48680451  .00000109  00000+0  25614-3 0  9998
2 48781  87.9004 255.7394 0002142 100.4220 259.7152 13.15547662246925
ONEWEB-0231             
1 48782U 21045R   26185.46461165  .00000051  00000+0  10226-3 0  9995
2 48782  87.8999 255.7558 0002068 106.2648 253.8710 13.15547451246612
ONEWEB-0234             
1 48783U 21045S   26185.42644912  .00000173  00000+0  42461-3 0  9996
2 48783  87.9004 255.7454 0002892  95.3512 264.7948 13.15547587246747
ONEWEB-0238             
1 48784U 21045T   26185.42671300 -.00001847  00000+0 -49403-2 0  9991
2 48784  87.9013 255.7407 0002384  97.2100 262.9301 13.15557554246643
ONEWEB-0240             
1 48785U 21045U   26185.44797961 -.00000029  00000+0 -11208-3 0  9990
2 48785  87.9007 255.7463 0002231 106.8716 253.2659 13.15549294246674
ONEWEB-0246             
1 48786U 21045V   26185.44242924  .00000039  00000+0  69034-4 0  9995
2 48786  87.9005 255.7514 0001952 100.4294 259.7056 13.15548071246540
ONEWEB-0210             
1 48787U 21045W   26185.49313743  .00000171  00000+0  42037-3 0  9999
2 48787  87.9004 255.7387 0001371 118.9243 241.2025 13.15547907246595
ONEWEB-0214             
1 48788U 21045X   26185.42577971  .00000183  00000+0  45164-3 0  9995
2 48788  87.9006 255.7489 0001643  96.1844 263.9473 13.15550362246550
ONEWEB-0221             
1 48789U 21045Y   26185.43293080  .00000052  00000+0  10327-3 0  9991
2 48789  87.9005 255.7561 0001991 105.0137 255.1213 13.15547817246648
ONEWEB-0213             
1 48790U 21045Z   26185.42183942  .00000221  00000+0  55219-3 0  9994
2 48790  87.9005 255.7615 0001904 107.1156 253.0183 13.15548451246703
ONEWEB-0212             
1 48791U 21045AA  26185.47489744  .00000102  00000+0  23567-3 0  9998
2 48791  87.9001 255.7452 0002055  99.1283 261.0079 13.15546983246709
ONEWEB-0227             
1 48792U 21045AB  26185.47412213  .00000100  00000+0  23075-3 0  9998
2 48792  87.8999 255.7458 0002034 102.0742 258.0616 13.15547919246659
ONEWEB-0226             
1 48793U 21045AC  26185.61989488 -.00000054  00000+0 -17693-3 0  9997
2 48793  87.9000 255.7213 0001823 105.2803 254.8529 13.15547707246642
ONEWEB-0224             
1 48794U 21045AD  26185.12711927  .00000078  00000+0  17257-3 0  9995
2 48794  87.8996 255.8525 0002828 108.0351 252.1088 13.15547919246509
ONEWEB-0233             
1 48795U 21045AE  26185.43597056 -.00000909  00000+0 -24497-2 0  9993
2 48795  87.8992 255.7982 0002089 107.3479 252.7880 13.15539652246561
ONEWEB-0190             
1 48796U 21045AF  26185.42342245  .00000216  00000+0  54022-3 0  9998
2 48796  87.9000 255.7636 0001913 118.9927 241.1395 13.15548788246631
