OBJECT_NAME,OBJECT_ID,EPOCH,MEAN_MOTION,ECCENTRICITY,INCLINATION,RA_OF_ASC_NODE,ARG_OF_PERICENTER,MEAN_ANOMALY,EPHEMERIS_TYPE,CLASSIFICATION_TYPE,NORAD_CAT_ID,ELEMENT_SET_NO,REV_AT_EPOCH,BSTAR,MEAN_MOTION_DOT,MEAN_MOTION_DDOT
ONEWEB-0211,2021-045A,2026-07-04T03:26:27.822048,13.16197414,.00024472,87.9000,255.7005,113.6928,246.4460,0,U,48767,999,24667,-.51318678E-4,-.7E-7,0
ONEWEB-0223,2021-045B,2026-07-04T10:59:55.388544,13.15547670,.00020933,87.9002,255.7509,110.9846,249.1509,0,U,48768,999,24667,-.34966632E-3,-.119E-5,0
ONEWEB-0230,2021-045C,2026-07-04T10:18:51.431616,13.15547465,.00019096,87.8994,255.7685,95.1781,264.9567,0,U,48769,999,24693,.4337054E-3,.176E-5,0
ONEWEB-0237,2021-045D,2026-07-04T11:52:24.079296,13.15548220,.00023644,87.8993,255.7573,101.1865,258.9532,0,U,48770,999,24666,.55789983E-3,.223E-5,0
ONEWEB-0235,2021-045E,2026-07-04T11:15:53.523936,13.15549545,.00020023,87.9001,255.7497,111.4992,248.6352,0,U,48771,999,24665,-.26752243E-4,.3E-7,0
ONEWEB-0242,2021-045F,2026-07-04T14:45:49.009248,13.15548188,.00018777,87.9006,255.7179,102.8517,257.2824,0,U,48772,999,24671,-.20406917E-3,-.64E-6,0
ONEWEB-0241,2021-045G,2026-07-04T10:48:30.040416,13.15550782,.00022498,87.8994,255.7669,109.4120,250.7253,0,U,48773,999,24660,-.15886184E-3,-.47E-6,0
ONEWEB-0243,2021-045H,2026-07-04T11:34:09.611616,13.15550225,.00015773,87.8992,255.7731,110.1490,249.9810,0,U,48774,999,24663,.19842691E-3,.88E-6,0
ONEWEB-0222,2021-045J,2026-07-04T14:49:12.860544,13.15549389,.0002139,87.9003,255.7151,105.3491,254.7876,0,U,48775,999,24669,-.20078611E-3,-.63E-6,0
ONEWEB-0244,2021-045K,2026-07-04T11:47:50.542080,13.15547650,.00019487,87.9007,255.7358,103.0893,257.0455,0,U,48776,999,24724,.52125071E-3,.209E-5,0
ONEWEB-0247,2021-045L,2026-07-04T11:43:16.997088,13.15548370,.00016904,87.8993,255.7662,123.3105,236.8187,0,U,48777,999,24668,.20395232E-3,.9E-6,0
ONEWEB-0245,2021-045M,2026-07-04T11:36:25.650144,13.15549314,.00021368,87.9001,255.7479,103.7203,256.4165,0,U,48778,999,24665,.47782472E-3,.193E-5,0
ONEWEB-0229,2021-045N,2026-07-04T11:29:34.910592,13.15547568,.00019127,87.8999,255.7466,101.3148,258.8197,0,U,48779,999,24668,.24484222E-3,.105E-5,0
ONEWEB-0228,2021-045P,2026-07-04T10:28:10.741152,13.15549436,.00019872,87.9008,255.7487,101.2354,258.9000,0,U,48780,999,24659,.91386569E-4,.47E-6,0
ONEWEB-0232,2021-045Q,2026-07-04T11:40:59.909664,13.15547662,.00021425,87.9004,255.7394,100.4220,259.7152,0,U,48781,999,24692,.25614293E-3,.109E-5,0
ONEWEB-0231,2021-045R,2026-07-04T11:09:02.446560,13.15547451,.00020689,87.8999,255.7558,106.2648,253.8710,0,U,48782,999,24661,.10226106E-3,.51E-6,0
ONEWEB-0234,2021-045S,2026-07-04T10:14:05.203968,13.15547587,.00028923,87.9004,255.7454,95.3512,264.7948,0,U,48783,999,24674,.42460921E-3,.173E-5,0
ONEWEB-0238,2021-045T,2026-07-04T10:14:28.003200,13.15557554,.00023844,87.9013,255.7407,97.2100,262.9301,0,U,48784,999,24664,-.49403028E-2,-.1847E-4,0
ONEWEB-0240,2021-045U,2026-07-04T10:45:05.438304,13.15549294,.0002231,87.9007,255.7463,106.8716,253.2659,0,U,48785,999,24667,-.11207825E-3,-.29E-6,0
ONEWEB-0246,2021-045V,2026-07-04T10:37:05.886336,13.15548071,.00019528,87.9005,255.7514,100.4294,259.7056,0,U,48786,999,24654,.69033827E-4,.39E-6,0
ONEWEB-0210,2021-045W,2026-07-04T11:50:07.073952,13.15547907,.00013715,87.9004,255.7387,118.9243,241.2025,0,U,48787,999,24659,.4203713E-3,.171E-5,0
ONEWEB-0214,2021-045X,2026-07-04T10:13:07.366944,13.15550362,.00016432,87.9006,255.7489,96.1844,263.9473,0,U,48788,999,24655,.4516436E-3,.183E-5,0
ONEWEB-0221,2021-045Y,2026-07-04T10:23:25.221120,13.15547817,.00019912,87.9005,255.7561,105.0137,255.1213,0,U,48789,999,24664,.1032682E-3,.52E-6,0
ONEWEB-0213,2021-045Z,2026-07-04T10:07:26.925888,13.15548451,.00019041,87.9005,255.7615,107.1156,253.0183,0,U,48790,999,24670,.55218871E-3,.221E-5,0
ONEWEB-0212,2021-045AA,2026-07-04T11:23:51.138816,13.15546983,.00020557,87.9001,255.7452,99.1283,261.0079,0,U,48791,999,24670,.23567082E-3,.102E-5,0
ONEWEB-0227,2021-045AB,2026-07-04T11:22:44.152032,13.15547919,.0002034,87.8999,255.7458,102.0742,258.0616,0,U,48792,999,24665,.23075143E-3,.1E-5,0
ONEWEB-0226,2021-045AC,2026-07-04T14:52:38.917632,13.15547707,.00018232,87.9000,255.7213,105.2803,254.8529,0,U,48793,999,24664,-.17692611E-3,-.54E-6,0
ONEWEB-0224,2021-045AD,2026-07-04T03:03:03.104928,13.15547919,.00028286,87.8996,255.8525,108.0351,252.1088,0,U,48794,999,24650,.17256988E-3,.78E-6,0
ONEWEB-0233,2021-045AE,2026-07-04T10:27:47.856384,13.15539652,.0002089,87.8992,255.7982,107.3479,252.7880,0,U,48795,999,24656,-.24497418E-2,-.909E-5,0
ONEWEB-0190,2021-045AF,2026-07-04T10:09:43.699680,13.15548788,.00019132,87.9000,255.7636,118.9927,241.1395,0,U,48796,999,24663,.54022139E-3,.216E-5,0
